NORAD_CAT_ID,OBJECT_NAME,OBJECT_TYPE,EPOCH,MEAN_MOTION,ECCENTRICITY,INCLINATION,RA_OF_ASC_NODE,ARG_OF_PERICENTER,MEAN_ANOMALY,BSTAR,MEAN_MOTION_DOT,MEAN_MOTION_DDOT,TLE_LINE0,TLE_LINE1,TLE_LINE2,SEMIMAJOR_AXIS,PERIOD,APOGEE,PERIGEE,DECAYED
51861.0,STARLINK-3562,PAYLOAD,2024-01-27 19:38:13,15.08841374,0.0001327,53.2153,234.1874,83.2169,276.8974,9.1894e-05,1.175e-05,0.0,0 STARLINK-3562,1 51861U 22022K   24027.81821331  .00001175  00000-0  91894-4 0  9990,2 51861  53.2153 234.1874 0001327  83.2169 276.8974 15.08841374106576,6917.876,95.437,540.659,538.823,0.0
51861.0,STARLINK-3562,PAYLOAD,2024-01-27 21:13:36,15.08841025,0.0001338,53.2153,233.8897,83.2601,276.8543,7.7222e-05,9.41e-06,0.0,0 STARLINK-3562,1 51861U 22022K   24027.88445286  .00000941  00000-0  77222-4 0  9997,2 51861  53.2153 233.8897 0001338  83.2601 276.8543 15.08841025106519,6917.877,95.437,540.668,538.817,0.0
51861.0,STARLINK-3562,PAYLOAD,2024-01-28 00:24:22,15.08841832,0.0001345,53.2154,233.2943,83.5304,276.5841,8.5428e-05,1.072e-05,0.0,0 STARLINK-3562,1 51861U 22022K   24028.01693238  .00001072  00000-0  85428-4 0  9998,2 51861  53.2154 233.2943 0001345  83.5304 276.5841 15.08841832106533,6917.875,95.437,540.67,538.809,0.0
51861.0,STARLINK-3562,PAYLOAD,2024-01-28 19:29:01,15.08840389,0.000153,53.2169,229.7257,73.4485,286.6675,6.4114e-05,7.33e-06,0.0,0 STARLINK-3562,1 51861U 22022K   24028.81181777  .00000733  00000-0  64114-4 0  9998,2 51861  53.2169 229.7257 0001530  73.4485 286.6675 15.08840389106725,6917.879,95.438,540.803,538.686,0.0
51861.0,STARLINK-3562,PAYLOAD,2024-01-28 21:04:24,15.08840406,0.0001577,53.2171,229.4284,71.624,288.4923,6.1676e-05,6.94e-06,0.0,0 STARLINK-3562,1 51861U 22022K   24028.87805781  .00000694  00000-0  61676-4 0  9998,2 51861  53.2171 229.4284 0001577  71.6240 288.4923 15.08840406106664,6917.879,95.438,540.835,538.653,0.0
51861.0,STARLINK-3562,PAYLOAD,2024-01-29 12:58:15,15.08844221,0.0001401,53.2165,226.4543,81.7061,278.409,0.00011405,1.528e-05,0.0,0 STARLINK-3562,1 51861U 22022K   24029.54045281  .00001528  00000-0  11405-3 0  9995,2 51861  53.2165 226.4543 0001401  81.7061 278.4090 15.08844221106765,6917.867,95.437,540.702,538.763,0.0
51861.0,STARLINK-3562,PAYLOAD,2024-01-30 19:10:34,15.08840981,0.0001188,53.2161,220.8049,92.5319,267.581,4.8063e-05,4.77e-06,0.0,0 STARLINK-3562,1 51861U 22022K   24030.79901496  .00000477  00000-0  48063-4 0  9996,2 51861  53.2161 220.8049 0001188  92.5319 267.5810 15.08840981107026,6917.877,95.437,540.564,538.921,0.0
51861.0,STARLINK-3562,PAYLOAD,2024-01-30 22:21:21,15.08840487,0.0001188,53.2161,220.2101,92.5702,267.5427,3.9572e-05,3.42e-06,0.0,0 STARLINK-3562,1 51861U 22022K   24030.93149491  .00000342  00000-0  39572-4 0  9997,2 51861  53.2161 220.2101 0001188  92.5702 267.5427 15.08840487106973,6917.879,95.438,540.566,538.922,0.0
51861.0,STARLINK-3562,PAYLOAD,2024-01-31 12:39:49,15.08838345,0.0001162,53.2156,217.5337,88.1232,271.9893,4.5966e-05,4.44e-06,0.0,0 STARLINK-3562,1 51861U 22022K   24031.52765621  .00000444  00000-0  45966-4 0  9999,2 51861  53.2156 217.5337 0001162  88.1232 271.9893 15.08838345107065,6917.885,95.438,540.554,538.947,0.0
51861.0,STARLINK-3562,PAYLOAD,2024-02-01 12:30:36,15.08837752,0.0001238,53.2162,213.0725,86.2973,273.816,8.1318e-05,1.006e-05,0.0,0 STARLINK-3562,1 51861U 22022K   24032.52125642  .00001006  00000-0  81318-4 0  9999,2 51861  53.2162 213.0725 0001238  86.2973 273.8160 15.08837752107215,6917.887,95.438,540.609,538.896,0.0
51861.0,STARLINK-3562,PAYLOAD,2024-02-02 10:46:00,15.08839483,0.0001277,53.2161,208.9092,88.8048,271.309,3.0926e-05,2.04e-06,0.0,0 STARLINK-3562,1 51861U 22022K   24033.44861726  .00000204  00000-0  30926-4 0  9999,2 51861  53.2161 208.9092 0001277  88.8048 271.3090 15.08839483107351,6917.882,95.438,540.63,538.864,0.0
51861.0,STARLINK-3562,PAYLOAD,2024-02-02 18:42:56,15.08839185,0.0001289,53.2155,207.4226,93.9053,266.2086,8.6989e-05,1.097e-05,0.0,0 STARLINK-3562,1 51861U 22022K   24033.77981684  .00001097  00000-0  86989-4 0  9992,2 51861  53.2155 207.4226 0001289  93.9053 266.2086 15.08839185107473,6917.883,95.438,540.64,538.856,0.0
51861.0,STARLINK-3562,PAYLOAD,2024-02-03 18:33:43,15.08835489,0.0001491,53.2168,202.9626,92.22,267.8963,3.9519e-05,3.41e-06,0.0,0 STARLINK-3562,1 51861U 22022K   24034.77342424  .00000341  00000-0  39519-4 0  9994,2 51861  53.2168 202.9626 0001491  92.2200 267.8963 15.08835489107623,6917.894,95.438,540.791,538.728,0.0
51861.0,STARLINK-3562,PAYLOAD,2024-02-03 20:09:06,15.08835407,0.0001497,53.2168,202.664,94.7987,265.3176,4.1161e-05,3.67e-06,0.0,0 STARLINK-3562,1 51861U 22022K   24034.83966389  .00000367  00000-0  41161-4 0  9997,2 51861  53.2168 202.6640 0001497  94.7987 265.3176 15.08835407107563,6917.894,95.438,540.795,538.724,0.0
51861.0,STARLINK-3562,PAYLOAD,2024-02-04 04:06:02,15.08840157,0.0001303,53.2162,201.1776,87.22,272.8941,5.1071e-05,5.25e-06,0.0,0 STARLINK-3562,1 51861U 22022K   24035.17086161  .00000525  00000-0  51071-4 0  9993,2 51861  53.2162 201.1776 0001303  87.2200 272.8941 15.08840157107619,6917.88,95.438,540.646,538.844,0.0
51861.0,STARLINK-3562,PAYLOAD,2024-02-04 18:24:30,15.08846127,0.0001557,53.2168,198.5013,95.752,264.365,0.00010268,1.347e-05,0.0,0 STARLINK-3562,1 51861U 22022K   24035.76701744  .00001347  00000-0  10268-3 0  9994,2 51861  53.2168 198.5013 0001557  95.7520 264.3650 15.08846127107771,6917.862,95.437,540.804,538.65,0.0
51861.0,STARLINK-3562,PAYLOAD,2024-02-05 16:39:54,15.08841793,0.0001423,53.2165,194.3391,85.4276,274.6878,9.6962e-05,1.256e-05,0.0,0 STARLINK-3562,1 51861U 22022K   24036.69438146  .00001256  00000-0  96962-4 0  9995,2 51861  53.2165 194.3391 0001423  85.4276 274.6878 15.08841793107913,6917.875,95.437,540.724,538.755,0.0
51861.0,STARLINK-3562,PAYLOAD,2024-02-06 10:09:08,15.08845192,0.0001475,53.2163,191.0691,84.2541,275.8619,6.2084e-05,7e-06,0.0,0 STARLINK-3562,1 51861U 22022K   24037.42301988  .00000700  00000-0  62084-4 0  9991,2 51861  53.2163 191.0691 0001475  84.2541 275.8619 15.08845192107954,6917.865,95.437,540.75,538.709,0.0
51861.0,STARLINK-3562,PAYLOAD,2024-02-06 16:30:41,15.08845297,0.0001551,53.2168,189.8814,76.9212,283.1953,6.2448e-05,7.06e-06,0.0,0 STARLINK-3562,1 51861U 22022K   24037.68797937  .00000706  00000-0  62448-4 0  9992,2 51861  53.2168 189.8814 0001551  76.9212 283.1953 15.08845297107992,6917.864,95.437,540.802,538.656,0.0
51861.0,STARLINK-3562,PAYLOAD,2024-02-07 14:46:05,15.08839966,0.0001547,53.2174,185.7184,104.7536,255.3627,3.3994e-05,2.53e-06,0.0,0 STARLINK-3562,1 51861U 22022K   24038.61534188  .00000253  00000-0  33994-4 0  9994,2 51861  53.2174 185.7184 0001547 104.7536 255.3627 15.08839966108130,6917.88,95.438,540.816,538.675,0.0
51861.0,STARLINK-3562,PAYLOAD,2024-02-07 16:21:28,15.08844053,0.0001401,53.2168,185.4207,84.1164,275.9987,6.205e-06,-1.89e-06,0.0,0 STARLINK-3562,1 51861U 22022K   24038.68158094 -.00000189  00000-0  62050-5 0  9994,2 51861  53.2168 185.4207 0001401  84.1164 275.9987 15.08844053108212,6917.868,95.437,540.702,538.764,0.0
51861.0,STARLINK-3562,PAYLOAD,2024-02-08 09:50:43,15.0883356,0.000144,53.2169,182.147,95.9551,264.1605,-1.3841e-05,-5.08e-06,0.0,0 STARLINK-3562,1 51861U 22022K   24039.41022974 -.00000508  00000-0 -13841-4 0  9992,2 51861  53.2169 182.1470 0001440  95.9551 264.1605 15.08833560108322,6917.9,95.438,540.761,538.769,0.0
51861.0,STARLINK-3562,PAYLOAD,2024-02-08 14:36:53,15.08836864,0.0001322,53.2171,181.2554,88.556,271.5583,-2.9976e-05,-7.65e-06,0.0,0 STARLINK-3562,1 51861U 22022K   24039.60894877 -.00000765  00000-0 -29976-4 0  9993,2 51861  53.2171 181.2554 0001322  88.5560 271.5583 15.08836864108287,6917.89,95.438,540.67,538.84,0.0
51861.0,STARLINK-3562,PAYLOAD,2024-02-09 14:27:39,15.08845494,0.0001278,53.2169,176.7964,78.1796,281.9339,4.8392e-05,4.82e-06,0.0,0 STARLINK-3562,1 51861U 22022K   24040.60254571  .00000482  00000-0  48392-4 0  9993,2 51861  53.2169 176.7964 0001278  78.1796 281.9339 15.08845494108434,6917.864,95.437,540.613,538.844,0.0
51861.0,STARLINK-3562,PAYLOAD,2024-02-10 09:32:17,15.08837384,0.0001553,53.2181,173.2287,105.3002,254.8162,0.00011348,1.518e-05,0.0,0 STARLINK-3562,1 51861U 22022K   24041.39743019  .00001518  00000-0  11348-3 0  9991,2 51861  53.2181 173.2287 0001553 105.3002 254.8162 15.08837384108620,6917.888,95.438,540.828,538.679,0.0
51861.0,STARLINK-3562,PAYLOAD,2024-02-10 14:18:26,15.08847473,0.0001395,53.2169,172.3339,105.6291,254.4855,0.00018451,2.65e-05,0.0,0 STARLINK-3562,1 51861U 22022K   24041.59614224  .00002650  00000-0  18451-3 0  9998,2 51861  53.2169 172.3339 0001395 105.6291 254.4855 15.08847473108581,6917.858,95.437,540.688,538.758,0.0
51861.0,STARLINK-3562,PAYLOAD,2024-02-11 07:47:41,15.0885392,0.0001704,53.2162,169.0619,109.762,250.3556,-8.4795e-05,-1.638e-05,0.0,0 STARLINK-3562,1 51861U 22022K   24042.32478681 -.00001638  00000-0 -84795-4 0  9997,2 51861  53.2162 169.0619 0001704 109.7620 250.3556 15.08853920108760,6917.838,95.437,540.882,538.524,0.0
51861.0,STARLINK-3562,PAYLOAD,2024-02-11 14:09:13,15.08852688,0.0001254,53.2167,167.8724,87.4228,272.6908,9.9161e-05,1.291e-05,0.0,0 STARLINK-3562,1 51861U 22022K   24042.58974193  .00001291  00000-0  99161-4 0  9990,2 51861  53.2167 167.8724 0001254  87.4228 272.6908 15.08852688108739,6917.842,95.437,540.574,538.839,0.0
51861.0,STARLINK-3562,PAYLOAD,2024-02-11 17:19:59,15.08873176,0.0001345,53.2163,167.2757,105.4844,254.6297,-0.00011431,-2.108e-05,0.0,0 STARLINK-3562,1 51861U 22022K   24042.72221090 -.00002108  00000-0 -11431-3 0  9990,2 51861  53.2163 167.2757 0001345 105.4844 254.6297 15.08873176108827,6917.779,95.435,540.574,538.714,0.0
51861.0,STARLINK-3562,PAYLOAD,2024-02-12 12:24:37,15.08846042,0.0001387,53.2168,163.7121,94.4717,265.6434,3.2117e-05,2.23e-06,0.0,0 STARLINK-3562,1 51861U 22022K   24043.51710580  .00000223  00000-0  32117-4 0  9994,2 51861  53.2168 163.7121 0001387  94.4717 265.6434 15.08846042108940,6917.862,95.437,540.686,538.767,0.0
